[
  {
    "OBJECT_NAME": "STARLINK-5262",
    "OBJECT_ID": "22141BC",
    "EPOCH": "2025-11-10T22:08:44.784384",
    "MEAN_MOTION": 15.08842806,
    "ECCENTRICITY": 0.0001545,
    "INCLINATION": 53.2162,
    "RA_OF_ASC_NODE": 166.8949,
    "ARG_OF_PERICENTER": 82.1232,
    "MEAN_ANOMALY": 277.9936,
    "EPHEMERIS_TYPE": 0,
    "CLASSIFICATION_TYPE": "U",
    "NORAD_CAT_ID": 54207,
    "ELEMENT_SET_NO": 999,
    "REV_AT_EPOCH": 16807,
    "BSTAR": 0.0,
    "MEAN_MOTION_DOT": -1.555e-05,
    "MEAN_MOTION_DDOT": 0.0,
    "TLE_LINE1": "1 54207U 22141BC  25314.92274056 -.00001555  00000+0 -79590-4 0  9999",
    "TLE_LINE2": "2 54207  53.2162 166.8949 0001545  82.1232 277.9936 15.08842806168072",
    "COMMENT": "Grouped by shell and plane from TLE"
  },
  {
    "OBJECT_NAME": "STARLINK-5440",
    "OBJECT_ID": "22175AD",
    "EPOCH": "2025-11-10T23:52:46.483680",
    "MEAN_MOTION": 15.08842711,
    "ECCENTRICITY": 0.0001495,
    "INCLINATION": 53.2159,
    "RA_OF_ASC_NODE": 161.8321,
    "ARG_OF_PERICENTER": 91.4565,
    "MEAN_ANOMALY": 268.6598,
    "EPHEMERIS_TYPE": 0,
    "CLASSIFICATION_TYPE": "U",
    "NORAD_CAT_ID": 54785,
    "ELEMENT_SET_NO": 999,
    "REV_AT_EPOCH": 16277,
    "BSTAR": 0.0001323,
    "MEAN_MOTION_DOT": 1.818e-05,
    "MEAN_MOTION_DDOT": 0.0,
    "TLE_LINE1": "1 54785U 22175AD  25314.99498245  .00001818  00000+0  13230-3 0  9990",
    "TLE_LINE2": "2 54785  53.2159 161.8321 0001495  91.4565 268.6598 15.08842711162771",
    "COMMENT": "Grouped by shell and plane from TLE"
  },
  {
    "OBJECT_NAME": "STARLINK-5426",
    "OBJECT_ID": "22175AW",
    "EPOCH": "2025-11-10T23:10:18.822432",
    "MEAN_MOTION": 15.08842057,
    "ECCENTRICITY": 0.0001529,
    "INCLINATION": 53.2154,
    "RA_OF_ASC_NODE": 161.5498,
    "ARG_OF_PERICENTER": 89.1829,
    "MEAN_ANOMALY": 270.9338,
    "EPHEMERIS_TYPE": 0,
    "CLASSIFICATION_TYPE": "U",
    "NORAD_CAT_ID": 54802,
    "ELEMENT_SET_NO": 999,
    "REV_AT_EPOCH": 16277,
    "BSTAR": 3.5119e-05,
    "MEAN_MOTION_DOT": 2.71e-06,
    "MEAN_MOTION_DDOT": 0.0,
    "TLE_LINE1": "1 54802U 22175AW  25314.96549563  .00000271  00000+0  35119-4 0  9990",
    "TLE_LINE2": "2 54802  53.2154 161.5498 0001529  89.1829 270.9338 15.08842057162774",
    "COMMENT": "Grouped by shell and plane from TLE"
  },
  {
    "OBJECT_NAME": "STARLINK-5611",
    "OBJECT_ID": "23028W",
    "EPOCH": "2025-11-11T00:35:19.558752",
    "MEAN_MOTION": 14.98328033,
    "ECCENTRICITY": 0.0002526,
    "INCLINATION": 69.9983,
    "RA_OF_ASC_NODE": 163.8405,
    "ARG_OF_PERICENTER": 268.8273,
    "MEAN_ANOMALY": 91.2597,
    "EPHEMERIS_TYPE": 0,
    "CLASSIFICATION_TYPE": "U",
    "NORAD_CAT_ID": 55761,
    "ELEMENT_SET_NO": 999,
    "REV_AT_EPOCH": 14875,
    "BSTAR": 0.0,
    "MEAN_MOTION_DOT": -1.248e-05,
    "MEAN_MOTION_DDOT": 0.0,
    "TLE_LINE1": "1 55761U 23028W   25315.02453193 -.00001248  00000+0 -96806-4 0  9991",
    "TLE_LINE2": "2 55761  69.9983 163.8405 0002526 268.8273  91.2597 14.98328033148757",
    "COMMENT": "Grouped by shell and plane from TLE"
  },
  {
    "OBJECT_NAME": "STARLINK-5603",
    "OBJECT_ID": "23028X",
    "EPOCH": "2025-11-11T06:41:34.953792",
    "MEAN_MOTION": 14.98333361,
    "ECCENTRICITY": 0.0003281,
    "INCLINATION": 70.001,
    "RA_OF_ASC_NODE": 163.12,
    "ARG_OF_PERICENTER": 272.1755,
    "MEAN_ANOMALY": 87.9029,
    "EPHEMERIS_TYPE": 0,
    "CLASSIFICATION_TYPE": "U",
    "NORAD_CAT_ID": 55762,
    "ELEMENT_SET_NO": 999,
    "REV_AT_EPOCH": 14879,
    "BSTAR": 3.3906e-05,
    "MEAN_MOTION_DOT": 3.12e-06,
    "MEAN_MOTION_DDOT": 0.0,
    "TLE_LINE1": "1 55762U 23028X   25315.27887678  .00000312  00000+0  33906-4 0  9999",
    "TLE_LINE2": "2 55762  70.0010 163.1200 0003281 272.1755  87.9029 14.98333361148796",
    "COMMENT": "Grouped by shell and plane from TLE"
  },
  {
    "OBJECT_NAME": "STARLINK-5499",
    "OBJECT_ID": "23028Z",
    "EPOCH": "2025-11-11T06:47:37.584960",
    "MEAN_MOTION": 14.98321982,
    "ECCENTRICITY": 0.0003309,
    "INCLINATION": 69.9988,
    "RA_OF_ASC_NODE": 163.1363,
    "ARG_OF_PERICENTER": 271.5249,
    "MEAN_ANOMALY": 88.5531,
    "EPHEMERIS_TYPE": 0,
    "CLASSIFICATION_TYPE": "U",
    "NORAD_CAT_ID": 55764,
    "ELEMENT_SET_NO": 999,
    "REV_AT_EPOCH": 14879,
    "BSTAR": 0.00018467,
    "MEAN_MOTION_DOT": 2.111e-05,
    "MEAN_MOTION_DDOT": 0.0,
    "TLE_LINE1": "1 55764U 23028Z   25315.28307390  .00002111  00000+0  18467-3 0  9993",
    "TLE_LINE2": "2 55764  69.9988 163.1363 0003309 271.5249  88.5531 14.98321982148792",
    "COMMENT": "Grouped by shell and plane from TLE"
  },
  {
    "OBJECT_NAME": "STARLINK-5595",
    "OBJECT_ID": "23028AA",
    "EPOCH": "2025-11-11T06:53:37.902336",
    "MEAN_MOTION": 14.98320045,
    "ECCENTRICITY": 0.0002853,
    "INCLINATION": 69.999,
    "RA_OF_ASC_NODE": 163.1506,
    "ARG_OF_PERICENTER": 266.3332,
    "MEAN_ANOMALY": 93.7501,
    "EPHEMERIS_TYPE": 0,
    "CLASSIFICATION_TYPE": "U",
    "NORAD_CAT_ID": 55765,
    "ELEMENT_SET_NO": 999,
    "REV_AT_EPOCH": 14879,
    "BSTAR": 8.344e-05,
    "MEAN_MOTION_DOT": 9.02e-06,
    "MEAN_MOTION_DDOT": 0.0,
    "TLE_LINE1": "1 55765U 23028AA  25315.28724424  .00000902  00000+0  83440-4 0  9995",
    "TLE_LINE2": "2 55765  69.9990 163.1506 0002853 266.3332  93.7501 14.98320045148797",
    "COMMENT": "Grouped by shell and plane from TLE"
  },
  {
    "OBJECT_NAME": "STARLINK-5599",
    "OBJECT_ID": "23028AB",
    "EPOCH": "2025-11-10T23:53:00.245472",
    "MEAN_MOTION": 14.98333204,
    "ECCENTRICITY": 0.0002912,
    "INCLINATION": 69.9966,
    "RA_OF_ASC_NODE": 163.7347,
    "ARG_OF_PERICENTER": 270.9553,
    "MEAN_ANOMALY": 89.1273,
    "EPHEMERIS_TYPE": 0,
    "CLASSIFICATION_TYPE": "U",
    "NORAD_CAT_ID": 55766,
    "ELEMENT_SET_NO": 999,
    "REV_AT_EPOCH": 14875,
    "BSTAR": 6.833800000000001e-05,
    "MEAN_MOTION_DOT": 7.23e-06,
    "MEAN_MOTION_DDOT": 0.0,
    "TLE_LINE1": "1 55766U 23028AB  25314.99514173  .00000723  00000+0  68338-4 0  9991",
    "TLE_LINE2": "2 55766  69.9966 163.7347 0002912 270.9553  89.1273 14.98333204148754",
    "COMMENT": "Grouped by shell and plane from TLE"
  },
  {
    "OBJECT_NAME": "STARLINK-5606",
    "OBJECT_ID": "23028AC",
    "EPOCH": "2025-11-11T00:35:04.870752",
    "MEAN_MOTION": 14.98335959,
    "ECCENTRICITY": 0.00026,
    "INCLINATION": 69.997,
    "RA_OF_ASC_NODE": 163.8386,
    "ARG_OF_PERICENTER": 266.0646,
    "MEAN_ANOMALY": 94.0215,
    "EPHEMERIS_TYPE": 0,
    "CLASSIFICATION_TYPE": "U",
    "NORAD_CAT_ID": 55767,
    "ELEMENT_SET_NO": 999,
    "REV_AT_EPOCH": 14873,
    "BSTAR": 1.4025000000000002e-05,
    "MEAN_MOTION_DOT": 7.4e-07,
    "MEAN_MOTION_DDOT": 0.0,
    "TLE_LINE1": "1 55767U 23028AC  25315.02436193  .00000074  00000+0  14025-4 0  9995",
    "TLE_LINE2": "2 55767  69.9970 163.8386 0002600 266.0646  94.0215 14.98335959148735",
    "COMMENT": "Grouped by shell and plane from TLE"
  },
  {
    "OBJECT_NAME": "STARLINK-5584",
    "OBJECT_ID": "23028AE",
    "EPOCH": "2025-11-11T00:05:02.476032",
    "MEAN_MOTION": 14.9833139,
    "ECCENTRICITY": 0.0002982,
    "INCLINATION": 69.9974,
    "RA_OF_ASC_NODE": 163.7644,
    "ARG_OF_PERICENTER": 268.7101,
    "MEAN_ANOMALY": 91.3716,
    "EPHEMERIS_TYPE": 0,
    "CLASSIFICATION_TYPE": "U",
    "NORAD_CAT_ID": 55769,
    "ELEMENT_SET_NO": 999,
    "REV_AT_EPOCH": 14875,
    "BSTAR": 0.00012066,
    "MEAN_MOTION_DOT": 1.347e-05,
    "MEAN_MOTION_DDOT": 0.0,
    "TLE_LINE1": "1 55769U 23028AE  25315.00350088  .00001347  00000+0  12066-3 0  9999",
    "TLE_LINE2": "2 55769  69.9974 163.7644 0002982 268.7101  91.3716 14.98331390148758",
    "COMMENT": "Grouped by shell and plane from TLE"
  },
  {
    "OBJECT_NAME": "STARLINK-5557",
    "OBJECT_ID": "23028AF",
    "EPOCH": "2025-11-10T23:59:01.168512",
    "MEAN_MOTION": 14.98331981,
    "ECCENTRICITY": 0.0002914,
    "INCLINATION": 69.997,
    "RA_OF_ASC_NODE": 163.7494,
    "ARG_OF_PERICENTER": 269.3703,
    "MEAN_ANOMALY": 90.7123,
    "EPHEMERIS_TYPE": 0,
    "CLASSIFICATION_TYPE": "U",
    "NORAD_CAT_ID": 55770,
    "ELEMENT_SET_NO": 999,
    "REV_AT_EPOCH": 14875,
    "BSTAR": 6.562400000000001e-05,
    "MEAN_MOTION_DOT": 6.9e-06,
    "MEAN_MOTION_DDOT": 0.0,
    "TLE_LINE1": "1 55770U 23028AF  25314.99931908  .00000690  00000+0  65624-4 0  9993",
    "TLE_LINE2": "2 55770  69.9970 163.7494 0002914 269.3703  90.7123 14.98331981148750",
    "COMMENT": "Grouped by shell and plane from TLE"
  },
  {
    "OBJECT_NAME": "STARLINK-5591",
    "OBJECT_ID": "23028AG",
    "EPOCH": "2025-11-10T23:46:59.602368",
    "MEAN_MOTION": 14.98337467,
    "ECCENTRICITY": 0.0003014,
    "INCLINATION": 69.995,
    "RA_OF_ASC_NODE": 163.7186,
    "ARG_OF_PERICENTER": 272.2874,
    "MEAN_ANOMALY": 87.7939,
    "EPHEMERIS_TYPE": 0,
    "CLASSIFICATION_TYPE": "U",
    "NORAD_CAT_ID": 55771,
    "ELEMENT_SET_NO": 999,
    "REV_AT_EPOCH": 14875,
    "BSTAR": 0.00011462,
    "MEAN_MOTION_DOT": 1.275e-05,
    "MEAN_MOTION_DDOT": 0.0,
    "TLE_LINE1": "1 55771U 23028AG  25314.99096762  .00001275  00000+0  11462-3 0  9994",
    "TLE_LINE2": "2 55771  69.9950 163.7186 0003014 272.2874  87.7939 14.98337467148757",
    "COMMENT": "Grouped by shell and plane from TLE"
  },
  {
    "OBJECT_NAME": "STARLINK-5835",
    "OBJECT_ID": "23028AH",
    "EPOCH": "2025-11-10T23:23:11.737824",
    "MEAN_MOTION": 14.98331821,
    "ECCENTRICITY": 0.0002616,
    "INCLINATION": 69.9991,
    "RA_OF_ASC_NODE": 163.6613,
    "ARG_OF_PERICENTER": 276.3418,
    "MEAN_ANOMALY": 83.7443,
    "EPHEMERIS_TYPE": 0,
    "CLASSIFICATION_TYPE": "U",
    "NORAD_CAT_ID": 55772,
    "ELEMENT_SET_NO": 999,
    "REV_AT_EPOCH": 14875,
    "BSTAR": 1.657e-05,
    "MEAN_MOTION_DOT": 1.05e-06,
    "MEAN_MOTION_DDOT": 0.0,
    "TLE_LINE1": "1 55772U 23028AH  25314.97444141  .00000105  00000+0  16570-4 0  9998",
    "TLE_LINE2": "2 55772  69.9991 163.6613 0002616 276.3418  83.7443 14.98331821148757",
    "COMMENT": "Grouped by shell and plane from TLE"
  }
]